CCSDS_OMM_VERS = 2.0
CREATION_DATE  = 
ORIGINATOR     = 

OBJECT_NAME    = COSMOS 2058
OBJECT_ID      = 1990-010A
CENTER_NAME    = EARTH
REF_FRAME      = TEME
TIME_SYSTEM    = UTC
MEAN_ELEMENT_THEORY = SGP/SGP4

EPOCH          = 2026-03-24T03:32:08.490336
MEAN_MOTION    = 15.11446221
ECCENTRICITY   = .00075145
INCLINATION    = 82.4683
RA_OF_ASC_NODE = 33.1809
ARG_OF_PERICENTER = 289.6206
MEAN_ANOMALY   = 70.4212

EPHEMERIS_TYPE = 0
CLASSIFICATION_TYPE = U
NORAD_CAT_ID   = 20465
ELEMENT_SET_NO = 999
REV_AT_EPOCH   = 94442
BSTAR          = .273258E-3
MEAN_MOTION_DOT = .4649E-4
MEAN_MOTION_DDOT = 0

CCSDS_OMM_VERS = 2.0
CREATION_DATE  = 
ORIGINATOR     = 

OBJECT_NAME    = SL-14 R/B
OBJECT_ID      = 1990-010B
CENTER_NAME    = EARTH
REF_FRAME      = TEME
TIME_SYSTEM    = UTC
MEAN_ELEMENT_THEORY = SGP/SGP4

EPOCH          = 2026-03-24T04:30:31.202496
MEAN_MOTION    = 14.83581396
ECCENTRICITY   = .00184055
INCLINATION    = 82.4990
RA_OF_ASC_NODE = 253.7659
ARG_OF_PERICENTER = 250.7491
MEAN_ANOMALY   = 109.1733

EPHEMERIS_TYPE = 0
CLASSIFICATION_TYPE = U
NORAD_CAT_ID   = 20466
ELEMENT_SET_NO = 999
REV_AT_EPOCH   = 93063
BSTAR          = .53620828E-4
MEAN_MOTION_DOT = .466E-5
MEAN_MOTION_DDOT = 0

CCSDS_OMM_VERS = 2.0
CREATION_DATE  = 
ORIGINATOR     = 

OBJECT_NAME    = SL-14 R/B
OBJECT_ID      = 1990-018B
CENTER_NAME    = EARTH
REF_FRAME      = TEME
TIME_SYSTEM    = UTC
MEAN_ELEMENT_THEORY = SGP/SGP4

EPOCH          = 2026-03-24T06:53:27.292416
MEAN_MOTION    = 14.82159091
ECCENTRICITY   = .0017247
INCLINATION    = 82.5229
RA_OF_ASC_NODE = 209.4475
ARG_OF_PERICENTER = 47.6911
MEAN_ANOMALY   = 312.5762

EPHEMERIS_TYPE = 0
CLASSIFICATION_TYPE = U
NORAD_CAT_ID   = 20511
ELEMENT_SET_NO = 999
REV_AT_EPOCH   = 92474
BSTAR          = .57979915E-4
MEAN_MOTION_DOT = .486E-5
MEAN_MOTION_DDOT = 0

CCSDS_OMM_VERS = 2.0
CREATION_DATE  = 
ORIGINATOR     = 

OBJECT_NAME    = HST
OBJECT_ID      = 1990-037B
CENTER_NAME    = EARTH
REF_FRAME      = TEME
TIME_SYSTEM    = UTC
MEAN_ELEMENT_THEORY = SGP/SGP4

EPOCH          = 2026-03-24T07:07:10.916832
MEAN_MOTION    = 15.29703540
ECCENTRICITY   = .00014982
INCLINATION    = 28.4720
RA_OF_ASC_NODE = 300.3408
ARG_OF_PERICENTER = 295.0290
MEAN_ANOMALY   = 65.0150

EPHEMERIS_TYPE = 0
CLASSIFICATION_TYPE = U
NORAD_CAT_ID   = 20580
ELEMENT_SET_NO = 999
REV_AT_EPOCH   = 77555
BSTAR          = .22539745E-3
MEAN_MOTION_DOT = .6906E-4
MEAN_MOTION_DDOT = 0

CCSDS_OMM_VERS = 2.0
CREATION_DATE  = 
ORIGINATOR     = 

OBJECT_NAME    = SL-16 R/B
OBJECT_ID      = 1990-046B
CENTER_NAME    = EARTH
REF_FRAME      = TEME
TIME_SYSTEM    = UTC
MEAN_ELEMENT_THEORY = SGP/SGP4

EPOCH          = 2026-03-24T06:13:59.543616
MEAN_MOTION    = 14.15013222
ECCENTRICITY   = .00162655
INCLINATION    = 70.9954
RA_OF_ASC_NODE = 267.3118
ARG_OF_PERICENTER = 280.5356
MEAN_ANOMALY   = 79.3934

EPHEMERIS_TYPE = 0
CLASSIFICATION_TYPE = U
NORAD_CAT_ID   = 20625
ELEMENT_SET_NO = 999
REV_AT_EPOCH   = 85045
BSTAR          = .11056336E-3
MEAN_MOTION_DOT = .167E-5
MEAN_MOTION_DDOT = 0

CCSDS_OMM_VERS = 2.0
CREATION_DATE  = 
ORIGINATOR     = 

OBJECT_NAME    = COSMOS 2084
OBJECT_ID      = 1990-055A
CENTER_NAME    = EARTH
REF_FRAME      = TEME
TIME_SYSTEM    = UTC
MEAN_ELEMENT_THEORY = SGP/SGP4

EPOCH          = 2026-03-23T22:25:22.093536
MEAN_MOTION    = 15.05725105
ECCENTRICITY   = .00148546
INCLINATION    = 62.7894
RA_OF_ASC_NODE = 286.9913
ARG_OF_PERICENTER = 194.1057
MEAN_ANOMALY   = 165.9631

EPHEMERIS_TYPE = 0
CLASSIFICATION_TYPE = U
NORAD_CAT_ID   = 20663
ELEMENT_SET_NO = 999
REV_AT_EPOCH   = 93846
BSTAR          = .18450158E-3
MEAN_MOTION_DOT = .2486E-4
MEAN_MOTION_DDOT = 0

CCSDS_OMM_VERS = 2.0
CREATION_DATE  = 
ORIGINATOR     = 

OBJECT_NAME    = SL-6 R/B(2)
OBJECT_ID      = 1990-055D
CENTER_NAME    = EARTH
REF_FRAME      = TEME
TIME_SYSTEM    = UTC
MEAN_ELEMENT_THEORY = SGP/SGP4

EPOCH          = 2026-03-24T01:40:00.571584
MEAN_MOTION    = 15.03662441
ECCENTRICITY   = .00271583
INCLINATION    = 62.7830
RA_OF_ASC_NODE = 204.9464
ARG_OF_PERICENTER = 350.3892
MEAN_ANOMALY   = 9.6684

EPHEMERIS_TYPE = 0
CLASSIFICATION_TYPE = U
NORAD_CAT_ID   = 20666
ELEMENT_SET_NO = 999
REV_AT_EPOCH   = 94035
BSTAR          = .1817429E-3
MEAN_MOTION_DOT = .2318E-4
MEAN_MOTION_DDOT = 0

CCSDS_OMM_VERS = 2.0
CREATION_DATE  = 
ORIGINATOR     = 

OBJECT_NAME    = SL-8 R/B
OBJECT_ID      = 1990-078B
CENTER_NAME    = EARTH
REF_FRAME      = TEME
TIME_SYSTEM    = UTC
MEAN_ELEMENT_THEORY = SGP/SGP4

EPOCH          = 2026-03-24T03:42:58.095648
MEAN_MOTION    = 14.89510297
ECCENTRICITY   = .03592394
INCLINATION    = 82.9020
RA_OF_ASC_NODE = 238.2941
ARG_OF_PERICENTER = 325.2582
MEAN_ANOMALY   = 32.5635

EPHEMERIS_TYPE = 0
CLASSIFICATION_TYPE = U
NORAD_CAT_ID   = 20775
ELEMENT_SET_NO = 999
REV_AT_EPOCH   = 81145
BSTAR          = .37588895E-3
MEAN_MOTION_DOT = .12704E-3
MEAN_MOTION_DDOT = 0

CCSDS_OMM_VERS = 2.0
CREATION_DATE  = 
ORIGINATOR     = 

OBJECT_NAME    = SL-8 R/B
OBJECT_ID      = 1991-006B
CENTER_NAME    = EARTH
REF_FRAME      = TEME
TIME_SYSTEM    = UTC
MEAN_ELEMENT_THEORY = SGP/SGP4

EPOCH          = 2026-03-24T05:20:42.722880
MEAN_MOTION    = 13.77496453
ECCENTRICITY   = .00221532
INCLINATION    = 82.9453
RA_OF_ASC_NODE = 159.2417
ARG_OF_PERICENTER = 358.2452
MEAN_ANOMALY   = 55.1070

EPHEMERIS_TYPE = 0
CLASSIFICATION_TYPE = U
NORAD_CAT_ID   = 21088
ELEMENT_SET_NO = 999
REV_AT_EPOCH   = 76607
BSTAR          = .86204846E-4
MEAN_MOTION_DOT = .101E-5
MEAN_MOTION_DDOT = 0

CCSDS_OMM_VERS = 2.0
CREATION_DATE  = 
ORIGINATOR     = 

OBJECT_NAME    = OKEAN-3
OBJECT_ID      = 1991-039A
CENTER_NAME    = EARTH
REF_FRAME      = TEME
TIME_SYSTEM    = UTC
MEAN_ELEMENT_THEORY = SGP/SGP4

EPOCH          = 2026-03-24T04:11:22.759872
MEAN_MOTION    = 15.04892465
ECCENTRICITY   = .00124346
INCLINATION    = 82.5169
RA_OF_ASC_NODE = 322.8106
ARG_OF_PERICENTER = 282.9223
MEAN_ANOMALY   = 77.0614

EPHEMERIS_TYPE = 0
CLASSIFICATION_TYPE = U
NORAD_CAT_ID   = 21397
ELEMENT_SET_NO = 999
REV_AT_EPOCH   = 86721
BSTAR          = .15434654E-3
MEAN_MOTION_DOT = .2214E-4
MEAN_MOTION_DDOT = 0

CCSDS_OMM_VERS = 2.0
CREATION_DATE  = 
ORIGINATOR     = 

OBJECT_NAME    = COSMOS 2151
OBJECT_ID      = 1991-042A
CENTER_NAME    = EARTH
REF_FRAME      = TEME
TIME_SYSTEM    = UTC
MEAN_ELEMENT_THEORY = SGP/SGP4

EPOCH          = 2026-03-24T05:23:14.151840
MEAN_MOTION    = 15.00161861
ECCENTRICITY   = .00129502
INCLINATION    = 82.4942
RA_OF_ASC_NODE = 69.6509
ARG_OF_PERICENTER = 18.7839
MEAN_ANOMALY   = 341.3861

EPHEMERIS_TYPE = 0
CLASSIFICATION_TYPE = U
NORAD_CAT_ID   = 21422
ELEMENT_SET_NO = 999
REV_AT_EPOCH   = 86537
BSTAR          = .18040819E-3
MEAN_MOTION_DOT = .2282E-4
MEAN_MOTION_DDOT = 0

CCSDS_OMM_VERS = 2.0
CREATION_DATE  = 
ORIGINATOR     = 

OBJECT_NAME    = SL-14 R/B
OBJECT_ID      = 1991-042B
CENTER_NAME    = EARTH
REF_FRAME      = TEME
TIME_SYSTEM    = UTC
MEAN_ELEMENT_THEORY = SGP/SGP4

EPOCH          = 2026-03-24T06:37:02.706528
MEAN_MOTION    = 14.81843911
ECCENTRICITY   = .00168223
INCLINATION    = 82.4949
RA_OF_ASC_NODE = 206.5066
ARG_OF_PERICENTER = 188.3260
MEAN_ANOMALY   = 171.7678

EPHEMERIS_TYPE = 0
CLASSIFICATION_TYPE = U
NORAD_CAT_ID   = 21423
ELEMENT_SET_NO = 999
REV_AT_EPOCH   = 85523
BSTAR          = .61079855E-4
MEAN_MOTION_DOT = .507E-5
MEAN_MOTION_DDOT = 0

