COSMOS 2058             
1 20465U 90010A   26083.14732049  .00004649  00000+0  27326-3 0  9991
2 20465  82.4683  33.1809 0007514 289.6206  70.4212 15.11446221944420
SL-14 R/B               
1 20466U 90010B   26083.18786114  .00000466  00000+0  53621-4 0  9999
2 20466  82.4990 253.7659 0018405 250.7491 109.1733 14.83581396930638
SL-14 R/B               
1 20511U 90018B   26083.28712144  .00000486  00000+0  57980-4 0  9995
2 20511  82.5229 209.4475 0017247  47.6911 312.5762 14.82159091924741
HST                     
1 20580U 90037B   26083.29665413  .00006906  00000+0  22540-3 0  9995
2 20580  28.4720 300.3408 0001498 295.0290  65.0150 15.29703540775559
SL-16 R/B               
1 20625U 90046B   26083.25971694  .00000167  00000+0  11056-3 0  9995
2 20625  70.9954 267.3118 0016265 280.5356  79.3934 14.15013222850456
COSMOS 2084             
1 20663U 90055A   26082.93428349  .00002486  00000+0  18450-3 0  9996
2 20663  62.7894 286.9913 0014854 194.1057 165.9631 15.05725105938464
SL-6 R/B(2)             
1 20666U 90055D   26083.06945106  .00002318  00000+0  18174-3 0  9996
2 20666  62.7830 204.9464 0027158 350.3892   9.6684 15.03662441940356
SL-8 R/B                
1 20775U 90078B   26083.15483907  .00012704  00000+0  37589-3 0  9999
2 20775  82.9020 238.2941 0359239 325.2582  32.5635 14.89510297811450
SL-8 R/B                
1 21088U 91006B   26083.22271670  .00000101  00000+0  86205-4 0  9997
2 21088  82.9453 159.2417 0022153 358.2452  55.1070 13.77496453766076
OKEAN-3                 
1 21397U 91039A   26083.17456898  .00002214  00000+0  15435-3 0  9990
2 21397  82.5169 322.8106 0012434 282.9223  77.0614 15.04892465867212
COSMOS 2151             
1 21422U 91042A   26083.22446935  .00002282  00000+0  18041-3 0  9991
2 21422  82.4942  69.6509 0012950  18.7839 341.3861 15.00161861865374
SL-14 R/B               
1 21423U 91042B   26083.27572577  .00000507  00000+0  61080-4 0  9999
2 21423  82.4949 206.5066 0016822 188.3260 171.7678 14.81843911855232
